[Satellite]
VERSION=1.1
NAME=GSAT0103 (PRN E19)
NICKNAME=GSAT0103 (PRN E19)
TLE1=1 38857U 12055A   15050.46920155  .00000005  00000-0  10000-3 0  9996
TLE2=2 38857  55.0197 215.5922 0002051 182.6097 177.3460  1.70472380 14664
